ONEWEB-0323             
1 49106U 21075AH  26034.24456210  .00000445  00000+0  12021-2 0  9994
2 49106  87.8950  17.2326 0002472  79.7866 280.3541 13.12442705216986
ONEWEB-0329             
1 49107U 21075AJ  26034.00262440  .00000025  00000+0  31472-4 0  9996
2 49107  87.9092  32.5303 0002018  89.7447 270.3916 13.17651353215915
ONEWEB-0330             
1 49108U 21075AK  26034.00346634  .00000033  00000+0  52977-4 0  9997
2 49108  87.9095  32.5376 0001979  94.4032 265.7325 13.17651216215951
ONEWEB-0292             
1 49186U 21083A   26034.24534742  .00000262  00000+0  68320-3 0  9999
2 49186  87.9018 346.8756 0001942  78.1212 282.0135 13.13470835213348
ONEWEB-0303             
1 49187U 21083B   26033.47149292  .00000103  00000+0  22900-3 0  9994
2 49187  87.9213   2.2010 0001989  80.3375 279.7982 13.18687269212223
ONEWEB-0306             
1 49188U 21083C   26033.46158625  .00000050  00000+0  95076-4 0  9990
2 49188  87.9213   2.1864 0001659  86.5625 273.5696 13.18688357212267
ONEWEB-0307             
1 49189U 21083D   26034.23942866  .00000334  00000+0  87961-3 0  9993
2 49189  87.9015 346.8663 0001822  81.4141 278.7194 13.13470543213343
ONEWEB-0320             
1 49190U 21083E   26033.62077599  .00000115  00000+0  25833-3 0  9996
2 49190  87.9205   2.1813 0001857  84.3484 275.7860 13.18687135212242
ONEWEB-0321             
1 49191U 21083F   26034.26291088 -.00000001  00000+0 -33191-4 0  9992
2 49191  87.9225 301.1613 0001427  84.7160 275.4136 13.20774525219156
ONEWEB-0322             
1 49192U 21083G   26034.23518857  .00000309  00000+0  81067-3 0  9999
2 49192  87.9019 346.8713 0001281  81.4190 278.7084 13.13471925213332
ONEWEB-0324             
1 49193U 21083H   26033.60675135  .00000069  00000+0  14282-3 0  9991
2 49193  87.9213   2.1643 0001919  87.2461 272.8891 13.18687649212265
ONEWEB-0325             
1 49194U 21083J   26033.61003347  .00000064  00000+0  13007-3 0  9992
2 49194  87.9208   2.1827 0001772  81.6269 278.5064 13.18687695212272
ONEWEB-0326             
1 49195U 21083K   26033.47328709  .00000092  00000+0  20146-3 0  9992
2 49195  87.9212   2.1972 0002059  76.1861 283.9500 13.18687024212243
ONEWEB-0327             
1 49196U 21083L   26033.39713503  .00000047  00000+0  86178-4 0  9992
2 49196  87.9201   2.2274 0001990  73.5754 286.5597 13.18687148212256
ONEWEB-0328             
1 49197U 21083M   26034.22503534  .00000158  00000+0  39705-3 0  9993
2 49197  87.9033 346.8277 0001889  83.8557 276.2787 13.13470989213315
ONEWEB-0331             
1 49198U 21083N   26033.61829849  .00000022  00000+0  22378-4 0  9995
2 49198  87.9214   2.1613 0002204  81.2622 278.8760 13.18687176212276
ONEWEB-0333             
1 49199U 21083P   26034.21995241  .00000075  00000+0  16925-3 0  9991
2 49199  87.9013 346.8730 0001795  79.0328 281.1003 13.13471947213320
