[{"OBJECT_NAME":"ONEWEB-0323","OBJECT_ID":"2021-075AH","EPOCH":"2026-02-03T05:52:10.165440","MEAN_MOTION":13.12442705,"ECCENTRICITY":0.00024724,"INCLINATION":87.895,"RA_OF_ASC_NODE":17.2326,"ARG_OF_PERICENTER":79.7866,"MEAN_ANOMALY":280.3541,"EPHEMERIS_TYPE":0,"CLASSIFICATION_TYPE":"U","NORAD_CAT_ID":49106,"ELEMENT_SET_NO":999,"REV_AT_EPOCH":21698,"BSTAR":0.0012020709,"MEAN_MOTION_DOT":4.45e-6,"MEAN_MOTION_DDOT":0},{"OBJECT_NAME":"ONEWEB-0329","OBJECT_ID":"2021-075AJ","EPOCH":"2026-02-03T00:03:46.748160","MEAN_MOTION":13.17651353,"ECCENTRICITY":0.0002018,"INCLINATION":87.9092,"RA_OF_ASC_NODE":32.5303,"ARG_OF_PERICENTER":89.7447,"MEAN_ANOMALY":270.3916,"EPHEMERIS_TYPE":0,"CLASSIFICATION_TYPE":"U","NORAD_CAT_ID":49107,"ELEMENT_SET_NO":999,"REV_AT_EPOCH":21591,"BSTAR":3.147239e-5,"MEAN_MOTION_DOT":2.5e-7,"MEAN_MOTION_DDOT":0},{"OBJECT_NAME":"ONEWEB-0330","OBJECT_ID":"2021-075AK","EPOCH":"2026-02-03T00:04:59.491776","MEAN_MOTION":13.17651216,"ECCENTRICITY":0.00019796,"INCLINATION":87.9095,"RA_OF_ASC_NODE":32.5376,"ARG_OF_PERICENTER":94.4032,"MEAN_ANOMALY":265.7325,"EPHEMERIS_TYPE":0,"CLASSIFICATION_TYPE":"U","NORAD_CAT_ID":49108,"ELEMENT_SET_NO":999,"REV_AT_EPOCH":21595,"BSTAR":5.2976881e-5,"MEAN_MOTION_DOT":3.3e-7,"MEAN_MOTION_DDOT":0},{"OBJECT_NAME":"ONEWEB-0292","OBJECT_ID":"2021-083A","EPOCH":"2026-02-03T05:53:18.017088","MEAN_MOTION":13.13470835,"ECCENTRICITY":0.00019421,"INCLINATION":87.9018,"RA_OF_ASC_NODE":346.8756,"ARG_OF_PERICENTER":78.1212,"MEAN_ANOMALY":282.0135,"EPHEMERIS_TYPE":0,"CLASSIFICATION_TYPE":"U","NORAD_CAT_ID":49186,"ELEMENT_SET_NO":999,"REV_AT_EPOCH":21334,"BSTAR":0.00068319953,"MEAN_MOTION_DOT":2.62e-6,"MEAN_MOTION_DDOT":0},{"OBJECT_NAME":"ONEWEB-0303","OBJECT_ID":"2021-083B","EPOCH":"2026-02-02T11:18:56.988288","MEAN_MOTION":13.18687269,"ECCENTRICITY":0.00019892,"INCLINATION":87.9213,"RA_OF_ASC_NODE":2.201,"ARG_OF_PERICENTER":80.3375,"MEAN_ANOMALY":279.7982,"EPHEMERIS_TYPE":0,"CLASSIFICATION_TYPE":"U","NORAD_CAT_ID":49187,"ELEMENT_SET_NO":999,"REV_AT_EPOCH":21222,"BSTAR":0.00022900405,"MEAN_MOTION_DOT":1.03e-6,"MEAN_MOTION_DDOT":0},{"OBJECT_NAME":"ONEWEB-0306","OBJECT_ID":"2021-083C","EPOCH":"2026-02-02T11:04:41.052000","MEAN_MOTION":13.18688357,"ECCENTRICITY":0.00016596,"INCLINATION":87.9213,"RA_OF_ASC_NODE":2.1864,"ARG_OF_PERICENTER":86.5625,"MEAN_ANOMALY":273.5696,"EPHEMERIS_TYPE":0,"CLASSIFICATION_TYPE":"U","NORAD_CAT_ID":49188,"ELEMENT_SET_NO":999,"REV_AT_EPOCH":21226,"BSTAR":9.5076428e-5,"MEAN_MOTION_DOT":5.0e-7,"MEAN_MOTION_DDOT":0},{"OBJECT_NAME":"ONEWEB-0307","OBJECT_ID":"2021-083D","EPOCH":"2026-02-03T05:44:46.636224","MEAN_MOTION":13.13470543,"ECCENTRICITY":0.00018229,"INCLINATION":87.9015,"RA_OF_ASC_NODE":346.8663,"ARG_OF_PERICENTER":81.4141,"MEAN_ANOMALY":278.7194,"EPHEMERIS_TYPE":0,"CLASSIFICATION_TYPE":"U","NORAD_CAT_ID":49189,"ELEMENT_SET_NO":999,"REV_AT_EPOCH":21334,"BSTAR":0.00087960707,"MEAN_MOTION_DOT":3.34e-6,"MEAN_MOTION_DDOT":0},{"OBJECT_NAME":"ONEWEB-0320","OBJECT_ID":"2021-083E","EPOCH":"2026-02-02T14:53:55.045536","MEAN_MOTION":13.18687135,"ECCENTRICITY":0.00018579,"INCLINATION":87.9205,"RA_OF_ASC_NODE":2.1813,"ARG_OF_PERICENTER":84.3484,"MEAN_ANOMALY":275.786,"EPHEMERIS_TYPE":0,"CLASSIFICATION_TYPE":"U","NORAD_CAT_ID":49190,"ELEMENT_SET_NO":999,"REV_AT_EPOCH":21224,"BSTAR":0.0002583272,"MEAN_MOTION_DOT":1.15e-6,"MEAN_MOTION_DDOT":0},{"OBJECT_NAME":"ONEWEB-0321","OBJECT_ID":"2021-083F","EPOCH":"2026-02-03T06:18:35.500032","MEAN_MOTION":13.20774525,"ECCENTRICITY":0.00014278,"INCLINATION":87.9225,"RA_OF_ASC_NODE":301.1613,"ARG_OF_PERICENTER":84.716,"MEAN_ANOMALY":275.4136,"EPHEMERIS_TYPE":0,"CLASSIFICATION_TYPE":"U","NORAD_CAT_ID":49191,"ELEMENT_SET_NO":999,"REV_AT_EPOCH":21915,"BSTAR":-3.3191214e-5,"MEAN_MOTION_DOT":-1.0e-8,"MEAN_MOTION_DDOT":0},{"OBJECT_NAME":"ONEWEB-0322","OBJECT_ID":"2021-083G","EPOCH":"2026-02-03T05:38:40.292448","MEAN_MOTION":13.13471925,"ECCENTRICITY":0.00012817,"INCLINATION":87.9019,"RA_OF_ASC_NODE":346.8713,"ARG_OF_PERICENTER":81.419,"MEAN_ANOMALY":278.7084,"EPHEMERIS_TYPE":0,"CLASSIFICATION_TYPE":"U","NORAD_CAT_ID":49192,"ELEMENT_SET_NO":999,"REV_AT_EPOCH":21333,"BSTAR":0.00081066706,"MEAN_MOTION_DOT":3.09e-6,"MEAN_MOTION_DDOT":0},{"OBJECT_NAME":"ONEWEB-0324","OBJECT_ID":"2021-083H","EPOCH":"2026-02-02T14:33:43.316640","MEAN_MOTION":13.18687649,"ECCENTRICITY":0.00019194,"INCLINATION":87.9213,"RA_OF_ASC_NODE":2.1643,"ARG_OF_PERICENTER":87.2461,"MEAN_ANOMALY":272.8891,"EPHEMERIS_TYPE":0,"CLASSIFICATION_TYPE":"U","NORAD_CAT_ID":49193,"ELEMENT_SET_NO":999,"REV_AT_EPOCH":21226,"BSTAR":0.00014281887,"MEAN_MOTION_DOT":6.9e-7,"MEAN_MOTION_DDOT":0},{"OBJECT_NAME":"ONEWEB-0325","OBJECT_ID":"2021-083J","EPOCH":"2026-02-02T14:38:26.891808","MEAN_MOTION":13.18687695,"ECCENTRICITY":0.00017721,"INCLINATION":87.9208,"RA_OF_ASC_NODE":2.1827,"ARG_OF_PERICENTER":81.6269,"MEAN_ANOMALY":278.5064,"EPHEMERIS_TYPE":0,"CLASSIFICATION_TYPE":"U","NORAD_CAT_ID":49194,"ELEMENT_SET_NO":999,"REV_AT_EPOCH":21227,"BSTAR":0.00013006916,"MEAN_MOTION_DOT":6.4e-7,"MEAN_MOTION_DDOT":0},{"OBJECT_NAME":"ONEWEB-0326","OBJECT_ID":"2021-083K","EPOCH":"2026-02-02T11:21:32.004576","MEAN_MOTION":13.18687024,"ECCENTRICITY":0.00020596,"INCLINATION":87.9212,"RA_OF_ASC_NODE":2.1972,"ARG_OF_PERICENTER":76.1861,"MEAN_ANOMALY":283.95,"EPHEMERIS_TYPE":0,"CLASSIFICATION_TYPE":"U","NORAD_CAT_ID":49195,"ELEMENT_SET_NO":999,"REV_AT_EPOCH":21224,"BSTAR":0.00020146044,"MEAN_MOTION_DOT":9.2e-7,"MEAN_MOTION_DDOT":0},{"OBJECT_NAME":"ONEWEB-0327","OBJECT_ID":"2021-083L","EPOCH":"2026-02-02T09:31:52.466592","MEAN_MOTION":13.18687148,"ECCENTRICITY":0.00019908,"INCLINATION":87.9201,"RA_OF_ASC_NODE":2.2274,"ARG_OF_PERICENTER":73.5754,"MEAN_ANOMALY":286.5597,"EPHEMERIS_TYPE":0,"CLASSIFICATION_TYPE":"U","NORAD_CAT_ID":49196,"ELEMENT_SET_NO":999,"REV_AT_EPOCH":21225,"BSTAR":8.6177891e-5,"MEAN_MOTION_DOT":4.7e-7,"MEAN_MOTION_DDOT":0},{"OBJECT_NAME":"ONEWEB-0328","OBJECT_ID":"2021-083M","EPOCH":"2026-02-03T05:24:03.053376","MEAN_MOTION":13.13470989,"ECCENTRICITY":0.00018896,"INCLINATION":87.9033,"RA_OF_ASC_NODE":346.8277,"ARG_OF_PERICENTER":83.8557,"MEAN_ANOMALY":276.2787,"EPHEMERIS_TYPE":0,"CLASSIFICATION_TYPE":"U","NORAD_CAT_ID":49197,"ELEMENT_SET_NO":999,"REV_AT_EPOCH":21331,"BSTAR":0.00039705353,"MEAN_MOTION_DOT":1.58e-6,"MEAN_MOTION_DDOT":0},{"OBJECT_NAME":"ONEWEB-0331","OBJECT_ID":"2021-083N","EPOCH":"2026-02-02T14:50:20.989536","MEAN_MOTION":13.18687176,"ECCENTRICITY":0.00022044,"INCLINATION":87.9214,"RA_OF_ASC_NODE":2.1613,"ARG_OF_PERICENTER":81.2622,"MEAN_ANOMALY":278.876,"EPHEMERIS_TYPE":0,"CLASSIFICATION_TYPE":"U","NORAD_CAT_ID":49198,"ELEMENT_SET_NO":999,"REV_AT_EPOCH":21227,"BSTAR":2.2378005e-5,"MEAN_MOTION_DOT":2.2e-7,"MEAN_MOTION_DDOT":0},{"OBJECT_NAME":"ONEWEB-0333","OBJECT_ID":"2021-083P","EPOCH":"2026-02-03T05:16:43.888224","MEAN_MOTION":13.13471947,"ECCENTRICITY":0.00017953,"INCLINATION":87.9013,"RA_OF_ASC_NODE":346.873,"ARG_OF_PERICENTER":79.0328,"MEAN_ANOMALY":281.1003,"EPHEMERIS_TYPE":0,"CLASSIFICATION_TYPE":"U","NORAD_CAT_ID":49199,"ELEMENT_SET_NO":999,"REV_AT_EPOCH":21332,"BSTAR":0.0001692515,"MEAN_MOTION_DOT":7.5e-7,"MEAN_MOTION_DDOT":0}]
